0 SATCOM 4
1 13035U 82004A   13286.73179652 -.00000137  00000-0  10000-3 0  1523
2 13035 014.7215 018.2961 0007096 087.5008 272.5753 00.99585529 79101
0 SATCOM 4
1 13035U 82004A   13289.74414565 -.00000077  00000-0  10000-3 0  1536
2 13035 014.7257 018.2668 0009171 099.7919 260.2723 00.99583990 79137
0 SATCOM 4
1 13035U 82004A   13292.75659578 -.00000017  00000-0  10000-3 0  1552
2 13035 014.7274 018.2304 0006938 088.7086 271.3691 00.99584431 79165
0 SATCOM 4
1 13035U 82004A   13292.75660695 -.00000017  00000-0  10000-3 0  1543
2 13035 014.7275 018.2312 0007099 088.3621 271.6998 00.99583900 79168
0 SATCOM 4
1 13035U 82004A   13293.76067190  .00000001  00000-0  10000-3 0  1560
2 13035 014.7284 018.2196 0006596 088.7899 271.2632 00.99584407 79175
0 SATCOM 4
1 13035U 82004A   13295.76895970  .00000036  00000-0  10000-3 0  1576
2 13035 014.7303 018.1978 0006614 088.9241 271.1349 00.99584498 79194
